SKYSAT-C1               
1 41601U 16040C   26203.05666916  .00009079  00000+0  25428-3 0  9993
2 41601  96.9555 232.8956 0000844 190.2367 169.8861 15.36827669563222
LAPAN-A3                
1 41603U 16040E   26203.30363671  .00003148  00000+0  10007-3 0  9993
2 41603  97.1511 198.3037 0008382 244.4764 115.5612 15.33309000560199
GAOFEN-3                
1 41727U 16049A   26203.32796296  .00000104  00000+0  44599-4 0  9997
2 41727  98.4028 210.5846 0001799  82.7207 277.4188 14.42219392523714
SKYSAT-C4               
1 41771U 16058B   26203.01992088  .00018176  00000+0  33019-3 0  9991
2 41771  96.9178 223.3561 0003520 108.6936 251.4698 15.49596199550864
SKYSAT-C5               
1 41772U 16058C   26203.06173260  .00007134  00000+0  22058-3 0  9993
2 41772  97.0451 242.1300 0003301 144.6118 215.5346 15.33783362549097
SKYSAT-C2               
1 41773U 16058D   26203.03202553  .00012512  00000+0  28765-3 0  9996
2 41773  97.0164 223.8305 0000679 293.7339  66.3838 15.42790271550420
SKYSAT-C3               
1 41774U 16058E   26203.06072799  .00024954  00000+0  38777-3 0  9994
2 41774  96.9001 232.5963 0002800 124.5445 235.6075 15.53929029551526
ALSAT-1B                
1 41785U 16059C   26203.30899271  .00000018  00000+0  10259-4 0  9997
2 41785  97.7765 210.5581 0010718 109.8044 250.4321 14.72296663525749
PATHFINDER 1            
1 41787U 16059E   26202.42905010  .00000436  00000+0  84255-4 0  9991
2 41787  97.8180 200.1622 0029967  96.8090 263.6527 14.67698159524738
SCATSAT 1               
1 41790U 16059H   26203.17733964  .00001050  00000+0  14396-3 0  9996
2 41790  98.1171 267.3016 0055647 134.4865 226.0916 14.79599913106766
GOKTURK 1A              
1 41875U 16073A   26203.26829979  .00000191  00000+0  46529-4 0  9997
2 41875  98.1199  97.3848 0001437  80.9160 279.2204 14.62796052513953
RESOURCESAT-2A          
1 41877U 16074A   26203.26200782  .00000134  00000+0  81448-4 0  9991
2 41877  98.7510 276.4773 0001939  11.9157 348.2066 14.21610004499281
CARTOSAT-2D             
1 41948U 17008A   26203.32947808  .00001767  00000+0  86865-4 0  9993
2 41948  97.4084 261.9748 0006558 119.8597 240.3291 15.19316933522912
SENTINEL-2B             
1 42063U 17013A   26203.31241178  .00000078  00000+0  46313-4 0  9992
2 42063  98.5675 277.5889 0001245  94.1253 266.0073 14.30816666489667
CARTOSAT-2E             
1 42767U 17036C   26203.28152094  .00003527  00000+0  17034-3 0  9991
2 42767  97.4255 262.5014 0004166 163.6643 196.4726 15.19290117503476
FORMOSAT-5              
1 42920U 17049A   26203.22403926  .00000056  00000+0  25179-4 0  9997
2 42920  98.2241 277.7534 0010916 341.6074  18.4725 14.50893947471753
SENTINEL-5P             
1 42969U 17064A   26203.09238384  .00000038  00000+0  38933-4 0  9998
2 42969  98.7929 144.9769 0001191  92.0991 268.0321 14.19524119454516
SKYSAT-C11              
1 42987U 17068A   26202.85103500  .00030373  00000+0  38249-3 0  9990
2 42987  97.4385 353.2450 0001484 150.0180 210.1162 15.59590198488647
SKYSAT-C10              
1 42988U 17068B   26203.10461435  .00011303  00000+0  33291-3 0  9998
2 42988  97.4541 340.3147 0001516 109.3411 250.7997 15.35213218487714
SKYSAT-C9               
1 42989U 17068C   26202.82757539  .00012573  00000+0  29342-3 0  9992
2 42989  97.4463 341.3062 0008073  22.4095 337.7503 15.42323221488098
SKYSAT-C8               
1 42990U 17068D   26202.82701574  .00010214  00000+0  27919-3 0  9990
2 42990  97.4559 339.9674 0001316 107.8683 252.2706 15.37580052487638
SKYSAT-C7               
1 42991U 17068E   26203.14711872  .00010814  00000+0  29577-3 0  9997
2 42991  97.4571 341.2846 0005063 356.4599   3.6609 15.37534471487747
SKYSAT-C6               
1 42992U 17068F   26203.10660047  .00009019  00000+0  27432-3 0  9994
2 42992  97.4609 341.0656 0004854  71.2811 288.8958 15.34251178487676
CARTOSAT-2F             
1 43111U 18004A   26203.24856356  .00004120  00000+0  19895-3 0  9996
2 43111  97.4763 262.5361 0002778 124.7104 235.4393 15.19208061472652
GAOFEN-1 02             
1 43259U 18031A   26203.26818200  .00000387  00000+0  63018-4 0  9995
2 43259  98.0505 265.6937 0001578 239.2334 120.8720 14.76477188447870
GAOFEN-1 03             
1 43260U 18031B   26203.31409301  .00000574  00000+0  89946-4 0  9997
2 43260  98.0499 265.5938 0001839 352.7921   7.3261 14.76469549447878
GAOFEN-1 04             
1 43262U 18031D   26203.28987345  .00000605  00000+0  94409-4 0  9999
2 43262  98.0507 265.7648 0000835  58.5688 301.5603 14.76444760447862
SENTINEL-3B             
1 43437U 18039A   26203.18450462  .00000068  00000+0  45951-4 0  9996
2 43437  98.6230 270.2113 0001295 118.4531 241.6780 14.26737791429119
GAOFEN-5 01             
1 43461U 18043A   26202.86205922  .00000260  00000+0  63632-4 0  9991
2 43461  98.4596 175.1818 0001688  17.5078 342.6180 14.60626560436758
GAOFEN-6                
1 43484U 18048A   26203.31272260 -.00000095  00000+0 -60949-5 0  9998
2 43484  98.0949 266.0312 0011941  61.8126 298.4288 14.76387284438572
