OBJECT_NAME,OBJECT_ID,EPOCH,MEAN_MOTION,ECCENTRICITY,INCLINATION,RA_OF_ASC_NODE,ARG_OF_PERICENTER,MEAN_ANOMALY,EPHEMERIS_TYPE,CLASSIFICATION_TYPE,NORAD_CAT_ID,ELEMENT_SET_NO,REV_AT_EPOCH,BSTAR,MEAN_MOTION_DOT,MEAN_MOTION_DDOT
SKYSAT-C1,2016-040C,2026-07-22T01:21:36.215424,15.36827669,.00008445,96.9555,232.8956,190.2367,169.8861,0,U,41601,999,56322,.25428289E-3,.9079E-4,0
LAPAN-A3,2016-040E,2026-07-22T07:17:14.211744,15.33309000,.00083822,97.1511,198.3037,244.4764,115.5612,0,U,41603,999,56019,.10007138E-3,.3148E-4,0
GAOFEN-3,2016-049A,2026-07-22T07:52:15.999744,14.42219392,.00017991,98.4028,210.5846,82.7207,277.4188,0,U,41727,999,52371,.44598777E-4,.104E-5,0
SKYSAT-C4,2016-058B,2026-07-22T00:28:41.164032,15.49596199,.00035204,96.9178,223.3561,108.6936,251.4698,0,U,41771,999,55086,.3301851E-3,.18176E-3,0
SKYSAT-C5,2016-058C,2026-07-22T01:28:53.696640,15.33783362,.00033011,97.0451,242.1300,144.6118,215.5346,0,U,41772,999,54909,.22057798E-3,.7134E-4,0
SKYSAT-C2,2016-058D,2026-07-22T00:46:07.005792,15.42790271,.00006793,97.0164,223.8305,293.7339,66.3838,0,U,41773,999,55042,.28764725E-3,.12512E-3,0
SKYSAT-C3,2016-058E,2026-07-22T01:27:26.898336,15.53929029,.00028007,96.9001,232.5963,124.5445,235.6075,0,U,41774,999,55152,.38776584E-3,.24954E-3,0
ALSAT-1B,2016-059C,2026-07-22T07:24:56.970144,14.72296663,.00107187,97.7765,210.5581,109.8044,250.4321,0,U,41785,999,52574,.10259114E-4,.18E-6,0
PATHFINDER 1,2016-059E,2026-07-21T10:17:49.928640,14.67698159,.00299672,97.8180,200.1622,96.8090,263.6527,0,U,41787,999,52473,.84255385E-4,.436E-5,0
SCATSAT 1,2016-059H,2026-07-22T04:15:22.144896,14.79599913,.00556475,98.1171,267.3016,134.4865,226.0916,0,U,41790,999,10676,.14396124E-3,.105E-4,0
GOKTURK 1A,2016-073A,2026-07-22T06:26:21.101856,14.62796052,.0001437,98.1199,97.3848,80.9160,279.2204,0,U,41875,999,51395,.46529424E-4,.191E-5,0
RESOURCESAT-2A,2016-074A,2026-07-22T06:17:17.475648,14.21610004,.00019396,98.7510,276.4773,11.9157,348.2066,0,U,41877,999,49928,.81448018E-4,.134E-5,0
CARTOSAT-2D,2017-008A,2026-07-22T07:54:26.906112,15.19316933,.00065589,97.4084,261.9748,119.8597,240.3291,0,U,41948,999,52291,.8686511E-4,.1767E-4,0
SENTINEL-2B,2017-013A,2026-07-22T07:29:52.377792,14.30816666,.00012451,98.5675,277.5889,94.1253,266.0073,0,U,42063,999,48966,.46312831E-4,.78E-6,0
CARTOSAT-2E,2017-036C,2026-07-22T06:45:23.409216,15.19290117,.00041669,97.4255,262.5014,163.6643,196.4726,0,U,42767,999,50347,.17034091E-3,.3527E-4,0
FORMOSAT-5,2017-049A,2026-07-22T05:22:36.992064,14.50893947,.00109163,98.2241,277.7534,341.6074,18.4725,0,U,42920,999,47175,.25178618E-4,.56E-6,0
SENTINEL-5P,2017-064A,2026-07-22T02:13:01.963776,14.19524119,.00011916,98.7929,144.9769,92.0991,268.0321,0,U,42969,999,45451,.38932681E-4,.38E-6,0
SKYSAT-C11,2017-068A,2026-07-21T20:25:29.424000,15.59590198,.00014843,97.4385,353.2450,150.0180,210.1162,0,U,42987,999,48864,.38249056E-3,.30373E-3,0
SKYSAT-C10,2017-068B,2026-07-22T02:30:38.679840,15.35213218,.00015168,97.4541,340.3147,109.3411,250.7997,0,U,42988,999,48771,.33290896E-3,.11303E-3,0
SKYSAT-C9,2017-068C,2026-07-21T19:51:42.513696,15.42323221,.00080738,97.4463,341.3062,22.4095,337.7503,0,U,42989,999,48809,.29341981E-3,.12573E-3,0
SKYSAT-C8,2017-068D,2026-07-21T19:50:54.159936,15.37580052,.00013167,97.4559,339.9674,107.8683,252.2706,0,U,42990,999,48763,.27919263E-3,.10214E-3,0
SKYSAT-C7,2017-068E,2026-07-22T03:31:51.057408,15.37534471,.00050638,97.4571,341.2846,356.4599,3.6609,0,U,42991,999,48774,.29576583E-3,.10814E-3,0
SKYSAT-C6,2017-068F,2026-07-22T02:33:30.280608,15.34251178,.00048544,97.4609,341.0656,71.2811,288.8958,0,U,42992,999,48767,.2743153E-3,.9019E-4,0
CARTOSAT-2F,2018-004A,2026-07-22T05:57:55.891584,15.19208061,.0002778,97.4763,262.5361,124.7104,235.4393,0,U,43111,999,47265,.1989487E-3,.412E-4,0
GAOFEN-1 02,2018-031A,2026-07-22T06:26:10.924800,14.76477188,.00015782,98.0505,265.6937,239.2334,120.8720,0,U,43259,999,44787,.63018132E-4,.387E-5,0
GAOFEN-1 03,2018-031B,2026-07-22T07:32:17.636064,14.76469549,.00018395,98.0499,265.5938,352.7921,7.3261,0,U,43260,999,44787,.89945892E-4,.574E-5,0
GAOFEN-1 04,2018-031D,2026-07-22T06:57:25.066080,14.76444760,.00008358,98.0507,265.7648,58.5688,301.5603,0,U,43262,999,44786,.94409084E-4,.605E-5,0
SENTINEL-3B,2018-039A,2026-07-22T04:25:41.199168,14.26737791,.0001295,98.6230,270.2113,118.4531,241.6780,0,U,43437,999,42911,.45950557E-4,.68E-6,0
GAOFEN-5 01,2018-043A,2026-07-21T20:41:21.916608,14.60626560,.00016883,98.4596,175.1818,17.5078,342.6180,0,U,43461,999,43675,.63631562E-4,.26E-5,0
GAOFEN-6,2018-048A,2026-07-22T07:30:19.232640,14.76387284,.0011941,98.0949,266.0312,61.8126,298.4288,0,U,43484,999,43857,-.60949E-5,-.95E-6,0
